    <HTML><HEAD><TITLE>Human Space Flight (HSF) - Realtime Data
    </TITLE>
         
    
    <LINK REL="stylesheet" HREF="/hsf_home_style.css" TYPE="text/css"><LINK REL="stylesheet" HREF="/realdata/tracking/clocks.css" TYPE="text/css"><!--
    ////    *_OVER.JS PROVIDES HTML FOR GRAPHICS    ////
    --><SCRIPT TYPE="text/javascript" LANGUAGE="javascript">
    
      var firstLevel = '<'+'script language="javascript" src="/!_js_files/hsf_realdata_over.js"></'+'script>';
    
    </SCRIPT>
    
    <!--
    ////    *_NAV.JS PROVIDES MOUSEOVERS    ////
    -->
    
    <SCRIPT TYPE="text/javascript" SRC="/!_js_files/hsf_realdata_nav.js" LANGUAGE="javascript"></SCRIPT>
    
      
    <SCRIPT LANGUAGE="javascript">
    <!---
    
    function buildArray(){
    var a = buildArray.arguments;
    for (i=0; i<a.length; i++){
    this[i] = a[i];
    }
    
    this.length = a.length;
    } 
    
    var urls1 = new buildArray("",
    "ksclive/index.html",
    "ksclive/kscv01.html",
    "ksclive/kscv02.html",
    "ksclive/kscv03.html",
    "ksclive/kscv04.html",
    "ksclive/kscv05.html",
    "ksclive/kscv06.html",
    "ksclive/kscv07.html",
    "ksclive/kscv08.html",
    "ksclive/kscv09.html",
    "ksclive/kscv10.html",
    "ksclive/kscv11.html",
    "ksclive/kscv12.html",
    "ksclive/kscv13.html",
    "ksclive/kscv14.html",
    "ksclive/kscv15.html"); 
    
    function go(which, num, win){
    n = which.selectedIndex;
    
    if (n != 0){
    var url = eval("urls" + num + "[n]")
    
    if (win){
    openWindow(url); 
    }
    
    else{ 
    location.href = url;
    }
    }
    }
    
    //-->
    </SCRIPT></HEAD><BODY ALINK="#ff0000" VLINK="#800000" LINK="#cc0000" TEXT="#000000" BGCOLOR="#ffffff" > 
    
    
         
    
    <!-- 
    ////    BEGIN --    ////
    ////    IMAGE MAP FOR 2ND LEVEL MENUS    ////
    -->
    
      <MAP NAME="level2menu"><AREA ONMOUSEOUT="timeoutId = setTimeout('menuLinks(0)',1);" ONMOUSEOVER="clearTimeout (timeoutId);" HREF="" ALT="" COORDS="0,-1,67,26" SHAPE="RECT"><AREA ONMOUSEOUT="timeoutId = setTimeout('menuLinks(0)',1);" ONMOUSEOVER="clearTimeout (timeoutId);" HREF="" ALT="" COORDS="67,-1,134,26" SHAPE="RECT"><AREA ONMOUSEOUT="timeoutId = setTimeout('menuLinks(0)',1);" ONMOUSEOVER="clearTimeout (timeoutId);" HREF="" ALT="" COORDS="134,-1,201,26" SHAPE="RECT"><AREA ONMOUSEOUT="timeoutId = setTimeout('menuLinks(0)',1);" ONMOUSEOVER="clearTimeout (timeoutId);" HREF="" ALT="" COORDS="201,-1,268,26" SHAPE="RECT"><AREA ONMOUSEOUT="timeoutId = setTimeout('menuLinks(0)',1);" ONMOUSEOVER="clearTimeout (timeoutId);" HREF="" ALT="" COORDS="268,-1,335,26" SHAPE="RECT"><AREA ONMOUSEOUT="timeoutId = setTimeout('menuLinks(0)',1);" ONMOUSEOVER="clearTimeout (timeoutId);" HREF="" ALT="" COORDS="335,-1,402,26" SHAPE="RECT"><AREA ONMOUSEOUT="timeoutId = setTimeout('menuLinks(0)',1);" ONMOUSEOVER="clearTimeout (timeoutId);" HREF="" ALT="" COORDS="402,-1,469,26" SHAPE="RECT"><AREA ONMOUSEOUT="timeoutId = setTimeout('menuLinks(0)',1);" ONMOUSEOVER="clearTimeout (timeoutId);" HREF="" ALT="" COORDS="469,-1,536,26" SHAPE="RECT"><AREA ONMOUSEOUT="timeoutId = setTimeout('menuLinks(0)',1);" ONMOUSEOVER="clearTimeout (timeoutId);" HREF="" ALT="" COORDS="536,-1,600,26" SHAPE="RECT"></MAP>
    
    <!-- 
    ////    END --    ////
    ////    IMAGE MAP FOR 2ND LEVEL MENUS    ////
    -->
    
    <TABLE ALIGN="CENTER" BORDER="0" WIDTH="600" CELLPADDING="0" CELLSPACING="0"><TR><TD><IMG USEMAP="#Map" BORDER="0" WIDTH="600" HEIGHT="55" SRC="/graphics/new_home/hsf_hdr_main2.gif"><MAP NAME="Map"><AREA TITLE="Return to Human Space Flight home page" HREF="/index.html" ALT="Return to Human Space Flight home page" COORDS="424,26,587,46" SHAPE="RECT"></MAP></TD></TR><!-- 
    ////    BEGIN -- 1ST LEVEL MENU OPTIONS    ////
    ////    REFERENCES *_OVER.JS WHICH PROVIDES HTML FOR GRAPHICS    ////
    ////    THE VARIABLE firstLevel IS CALLED INSIDE THE HEAD TAG    ////
    --><TR><TD WIDTH="600" VALIGN="TOP" COLSPAN="3"> 
          <SCRIPT LANGUAGE="javascript">
            <!-- 
              document.write(firstLevel)
            //-->
          </SCRIPT></TD></TR><!-- 
    ////    END -- 1ST LEVEL MENU OPTIONS    ////
    --><!-- 
    ////    BEGIN -- 2ND LEVEL MENU OPTIONS    ////
    ////    THIS SECTION CALLS THE MENULINKS FUNCTION    ////
    --><TR><TD WIDTH="600" VALIGN="TOP" COLSPAN="3"><IMG NAME="low1" ALT="" USEMAP="#level2menu" BORDER="0" WIDTH="600" HEIGHT="24" SRC="/graphics/new_home/hsf_l2.gif"></TD></TR><!-- 
    ////    END -- 2ND LEVEL MENU OPTIONS    ////
    --><TR><TD><IMG WIDTH="600" HEIGHT="5" SRC="/graphics/new_home/hsf_hdr_btm.gif"></TD></TR></TABLE><BR><A NAME="skipLinks"></A>
    
    
    <!--Begin Main Content Area Here-->
    
        
    <table width="600" border="0" cellspacing="0" cellpadding="0" align="center">
        
          <tr>
        
            <td>
        
            <PRE>
    
  <B> ISS  TRAJECTORY DATA</B>
 
   Lift off time (UTC)  :  N/A
   Area (sq ft)  :  7534.74
   Drag Coefficient (Cd)  :   2.00
   Monthly MSFC 50% solar flux (F10.7-jansky)  :   118.2
   Monthly MSFC 50% earth geomagnetic index (Kp)  :   2.905
   ET - UTC  (sec) :   67.18
   UT1 - UTC (sec) :    0.00
 
 
   Maneuvers contained within the current ephemeris are as follows:
 
 
   IMPULSIVE TIG (GMT)   M50 DVx(FPS)      LVLH DVx(FPS)      DVmag(FPS) 
   IMPULSIVE TIG (MET)   M50 DVy(FPS)      LVLH DVy(FPS)      Invar Sph HA
   DT                    M50 DVz(FPS)      LVLH DVz(FPS)      Invar Sph HP 
   ------------------------------------------------------------------------
    There are no maneuvers.
 
 
    Coasting Arc #1 (Orbit 629)
    ---------------------------------------
 
    Vector Time (GMT): 2015/285/12:00:00.000
    Vector Time (MET): N/A
    Weight (LBS)     : 907028.0
 
              M50 Cartesian                         M50 Keplerian  
    -----------------------------------       --------------------------------
     X    =       -1057467.65                 A    =         6781070.39  meter
     Y    =       -5129399.72  meter          E    =           .0012738
     Z    =        4294872.69                 I    =           51.40946
     XDOT =       6645.787279                 Wp   =           76.95324
     YDOT =       1570.032877  meter/sec      RA   =          217.47526  deg
     ZDOT =       3505.451849                 TA   =          337.26690
                                              MA   =          337.32326
                                              Ha   =            222.589  n.mi
                                              Hp   =            213.034
 
              M50 Cartesian                         J2K Cartesian  
    -----------------------------------       --------------------------------
     X    =       -3469382.05                 X    =        -1020894.11
     Y    =      -16828739.23  feet           Y    =        -5141019.94  meter
     Z    =       14090789.66                 Z    =         4289825.16
     XDOT =      21803.764038                 XDOT =        6610.708380
     YDOT =       5151.026498  feet/sec       YDOT =        1644.154790  meter/sec
     ZDOT =      11500.826276                 ZDOT =        3537.650942
 
              TDR Cartesian                         TDR Cartesian  
    -----------------------------------       --------------------------------
     X    =        9075418.38                 X    =         2766187.52
     Y    =       14610598.51  feet           Y    =         4453310.43  meter
     Z    =       14069847.96                 Z    =         4288489.66
     XDOT =     -21120.402336                 XDOT =       -6437.498632
     YDOT =       1891.543956  feet/sec       YDOT =         576.542598  meter/sec
     ZDOT =      11639.411689                 ZDOT =        3547.692683
  
  
    The mean element set is posted at the UTC for which position is
    just north of the next ascending node relative to the above
    vector time
 
 
    TWO LINE MEAN ELEMENT SET
  
    ISS
    1 25544U 98067A   15285.55469807  .00016717  00000-0  10270-3 0  9002
    2 25544  51.6430 218.2489 0006601  27.2414 332.9084 15.54279615  6301
  
  
    Satellite: ISS
    Catalog Number: 25544
    Epoch time:      15285.55469807   =   yrday.fracday
    Element set:     900
    Inclination:       51.6430  deg
    RA of node:       218.2489  deg
    Eccentricity:     .0006601     
    Arg of perigee:    27.2414  deg
    Mean anomaly:     332.9084  deg
    Mean motion:   15.54279615  rev/day
    Decay rate:    1.67170E-04  rev/day^2
    Epoch rev:             630
    Checksum:              307
 
 
    Coasting Arc #2 (Orbit 644)
    ---------------------------------------
 
    Vector Time (GMT): 2015/286/12:00:00.000
    Vector Time (MET): N/A
    Weight (LBS)     : 907028.0
 
              M50 Cartesian                         M50 Keplerian  
    -----------------------------------       --------------------------------
     X    =        -534672.38                 A    =         6777921.03  meter
     Y    =        4467333.56  meter          E    =           .0018579
     Z    =       -5085744.35                 I    =           51.42530
     XDOT =      -6921.702586                 Wp   =           62.01705
     YDOT =      -2783.560600  meter/sec      RA   =          212.46379  deg
     ZDOT =      -1713.663888                 TA   =          191.32223
                                              MA   =          191.36409
                                              Ha   =            222.689  n.mi
                                              Hp   =            212.819
 
